#aV2022  2 22  0  0  0.00000000     288 DD+AD WGS84 FIT  NGA
## 2198 172800.00000000   300.00000000 59632 0.0000000000000
+   32     1  2  3  4  5  6  7  8  9 10 11 12 13 14 15 16 17
+         18 19 20 21 22 23 24 25 26 27 28 29 30 31 32  0  0
+          0  0  0  0  0  0  0  0  0  0  0  0  0  0  0  0  0
+          0  0  0  0  0  0  0  0  0  0  0  0  0  0  0  0  0
+          0  0  0  0  0  0  0  0  0  0  0  0  0  0  0  0  0
++         2  2  2  2  2  2  2  2  2  2  2  2  2  2  2  2  2
++         2  2  2  2  2  2  2  2  2  2  2  2  2  2  2  0  0
++         0  0  0  0  0  0  0  0  0  0  0  0  0  0  0  0  0
++         0  0  0  0  0  0  0  0  0  0  0  0  0  0  0  0  0
++         0  0  0  0  0  0  0  0  0  0  0  0  0  0  0  0  0
%c cc cc ccc ccc cccc cccc cccc cccc ccccc ccccc ccccc ccccc
%c cc cc ccc ccc cccc cccc cccc cccc ccccc ccccc ccccc ccccc
%f  0.0000000  0.000000000  0.00000000000  0.000000000000000
%f  0.0000000  0.000000000  0.00000000000  0.000000000000000
%i    0    0    0    0      0      0      0      0         0
%i    0    0    0    0      0      0      0      0         0
/*      NGA, ST. LOUIS,MO.                                  
/*   EPHEMERIS COMPUTED FROM 2 DAYS OF DATA                 
/*   EPOCHA v7 SMOOTHER                                     
/*   G2139 IERS2010 SATIGS SATAPC                           
*  2022  2 22 12 10  0.00000000
P  1 -18400.656614  -8159.534905  17229.081502    425.207645                    
V  1 -10710.959374 -19517.993104 -20015.441853     -0.094017                    
P  2  14769.119475  21952.040566   1888.206870   -651.298855                    
V  2  -3176.251434    364.566565  31824.953186     -0.006407                    
P  3 -17070.399770   3268.300150  19949.711283   -132.989444                    
V  3  10914.291165 -23133.555158  13166.669281     -0.176466                    
P  4 -26554.739105   -822.534897   1425.731148   -188.021982                    
V  4   1782.622412  -2735.453952  31648.745990      0.023523                    
P  5  10048.267927  13080.320276 -20948.167411    -72.316111                    
V  5 -12024.530405  23371.904216   9041.942483     -0.013402                    
P  6   2448.706833  22064.778214  14593.019835    209.548209                    
V  6 -11081.485390 -14757.273493  24360.639627      0.121299                    
P  7 -12545.915403   8678.912417 -21348.852691    312.033566                    
V  7 -15151.549053 -23632.294164  -1176.060410      0.025528                    
P  8 -23082.589066  -6711.883524 -11702.772871    -57.178600                    
V  8  14536.126631  -2902.291210 -26722.654846     -0.015341                    
P  9 -23619.576226   7984.257264  -9269.877530   -353.053400                    
V  9 -11813.290319  -1993.095287  28565.530886      0.017299                    
P 10  11232.206964 -23849.063658   1552.220609   -327.519295                    
V 10   3226.859191   -362.383704 -32122.308062     -0.107334                    
P 11  12335.833019  23510.979379    968.559737    -80.981886                    
V 11  -3021.007536    273.370375  31740.025659      0.115863                    
P 12  16160.047917    928.703305  20764.558916   -174.819106                    
V 12 -13482.230315  23389.028375   9456.517850     -0.057172                    
P 13  16367.338977  13005.922532 -16630.911102    265.844549                    
V 13 -20798.140281   -409.013430 -20823.272263      0.062179                    
P 14 -12783.624938  23225.983445    742.086474    -86.795054                    
V 14  -3173.563277   -730.633131 -31617.651926     -0.043042                    
P 15  23911.150163   4605.164840 -11386.247029    -81.902395                    
V 15 -13143.266688   5096.439066 -26172.207613      0.028963                    
P 16  -5561.318281 -16686.906161 -20021.713308   -472.629738                    
V 16  14565.387089 -20303.051033  13507.683864     -0.047443                    
P 17 -11567.056017  13360.562650  20278.407977    578.418426                    
V 17 -24703.381740  -1317.984216 -13467.112197      0.050376                    
P 18  12070.072327  -8982.511951 -21885.965090    234.747291                    
V 18  14533.756577  23648.956269  -1789.766373     -0.082622                    
P 19  -2939.908285  14492.676184  21793.228072    122.253364                    
V 19 -28180.663923  -2120.098270  -2540.972404      0.049870                    
P 20   4440.833640  21401.529130 -15260.119175    516.592322                    
V 20  -8366.491247  17569.736861  21958.796204     -0.001646                    
P 21 -20117.945794 -15230.221138   9930.455768    158.441192                    
V 21  -5341.668518 -10310.558397 -27962.521936      0.005910                    
P 22   -857.391879 -15412.213235  22021.988175    217.374007                    
V 22  26978.603283   1070.829008   1651.581334      0.057240                    
P 23  16392.054256 -18538.489449  -9529.194730     -0.968130                    
V 23  -3148.537696  11937.915815 -28763.358279     -0.034455                    
P 24  20331.948401  10828.782045  13274.808506    273.089959                    
V 24   8194.204224  15404.603677 -24161.343916     -0.023676                    
P 25  17988.662684 -12507.690878  14528.538303    289.076159                    
V 25  -6600.642478  18050.684652  23535.623893      0.053166                    
P 26   2389.261386 -24052.309978 -10731.317672    185.346976                    
V 26   8673.221323 -11047.211842  27205.292282      0.031554                    
P 27 -13767.550614 -12549.191991 -19280.316124    129.508301                    
V 27  23834.502519  -1915.081169 -15549.991952      0.152150                    
P 28  -7633.488253  23876.751714   9636.481453    395.000466                    
V 28  -7905.165922   8476.076087 -28607.805728     -0.082771                    
P 29  25209.028913  -4113.562405  -7437.681183   -483.316550                    
V 29   9273.899773   2279.246037  30305.783305     -0.046836                    
P 30  -6109.458364  17155.562861 -19180.315408   -514.896023                    
V 30 -14273.099224 -20199.798141 -13715.386170     -0.022721                    
P 31  -3792.702486 -23008.796490  12139.282316   -165.895727                    
V 31  10581.346237  12076.493318  26390.039200     -0.017632                    
P 32   6387.830240 -15081.578570  21003.700360    -72.251379                    
V 32  26428.952908   -428.725813  -8583.714153     -0.069199                    
EOF
